[{"OBJECT_NAME":"STARLINK-3233","OBJECT_ID":"2021-115Y","EPOCH":"2026-03-09T12:19:01.294752","MEAN_MOTION":15.0883373,"ECCENTRICITY":0.00012803,"INCLINATION":53.2174,"RA_OF_ASC_NODE":149.9127,"ARG_OF_PERICENTER":94.8594,"MEAN_ANOMALY":265.2545,"EPHEMERIS_TYPE":0,"CLASSIFICATION_TYPE":"U","NORAD_CAT_ID":49746,"ELEMENT_SET_NO":999,"REV_AT_EPOCH":23550,"BSTAR":4.1853167e-5,"MEAN_MOTION_DOT":3.78e-6,"MEAN_MOTION_DDOT":0},{"OBJECT_NAME":"YUNYAO-1 44","OBJECT_ID":"2025-059B","EPOCH":"2026-03-09T23:37:33.233088","MEAN_MOTION":15.10344945,"ECCENTRICITY":0.00180831,"INCLINATION":97.6069,"RA_OF_ASC_NODE":250.8958,"ARG_OF_PERICENTER":135.5449,"MEAN_ANOMALY":224.7236,"EPHEMERIS_TYPE":0,"CLASSIFICATION_TYPE":"U","NORAD_CAT_ID":63345,"ELEMENT_SET_NO":999,"REV_AT_EPOCH":5332,"BSTAR":0.0003556422,"MEAN_MOTION_DOT":5.791e-5,"MEAN_MOTION_DDOT":0}]
